{
  "type": "FeatureCollection",
  "features": [
    {
      "type": "Feature",
      "properties": {
        "norad_id": 35835,
        "name": "COSMOS 2251 DEB",
        "group": "cosmos-2251-debris",
        "lat": -60.55820885826506,
        "lon": -122.18315867911646,
        "alt_km": 1044.0625429528045,
        "timestamp": "2025-12-12T20:43:07.432609+00:00",
        "meta_object_name": "COSMOS 2251 DEB",
        "meta_object_id": "1993-036ATH",
        "meta_epoch": "2025-12-11T12:02:32.949600",
        "meta_mean_motion": 13.82870055,
        "meta_eccentricity": 0.02901062,
        "meta_inclination": 74.0631,
        "meta_ra_of_asc_node": 270.5178,
        "meta_arg_of_pericenter": 52.3891,
        "meta_mean_anomaly": 310.3189,
        "meta_ephemeris_type": 0,
        "meta_classification_type": "U",
        "meta_norad_cat_id": 35835,
        "meta_element_set_no": 999,
        "meta_rev_at_epoch": 61682,
        "meta_bstar": 0.0024457377,
        "meta_mean_motion_dot": 3.663e-05,
        "meta_mean_motion_ddot": 0,
        "tle_line1": "1 35835U 93036ATH 25345.50177025  .00003663  00000+0  24457-2 0  9992",
        "tle_line2": "2 35835  74.0631 270.5178 0290106  52.3891 310.3189 13.82870055616820"
      },
      "geometry": {
        "type": "Point",
        "coordinates": [
          -122.18315867911646,
          -60.55820885826506
        ]
      }
    },
    {
      "type": "Feature",
      "properties": {
        "norad_id": 35836,
        "name": "COSMOS 2251 DEB",
        "group": "cosmos-2251-debris",
        "lat": -14.585312512674514,
        "lon": -3.0303843625659366,
        "alt_km": 648.4095044990427,
        "timestamp": "2025-12-12T20:43:07.432620+00:00",
        "meta_object_name": "COSMOS 2251 DEB",
        "meta_object_id": "1993-036ATJ",
        "meta_epoch": "2025-12-10T18:51:50.352480",
        "meta_mean_motion": 14.70892448,
        "meta_eccentricity": 0.00244147,
        "meta_inclination": 74.0314,
        "meta_ra_of_asc_node": 176.7294,
        "meta_arg_of_pericenter": 235.542,
        "meta_mean_anomaly": 124.3445,
        "meta_ephemeris_type": 0,
        "meta_classification_type": "U",
        "meta_norad_cat_id": 35836,
        "meta_element_set_no": 999,
        "meta_rev_at_epoch": 63491,
        "meta_bstar": 0.0027962773,
        "meta_mean_motion_dot": 0.00017206,
        "meta_mean_motion_ddot": 0,
        "tle_line1": "1 35836U 93036ATJ 25344.78599945  .00017206  00000+0  27963-2 0  9994",
        "tle_line2": "2 35836  74.0314 176.7294 0024414 235.5420 124.3445 14.70892448634911"
      },
      "geometry": {
        "type": "Point",
        "coordinates": [
          -3.0303843625659366,
          -14.585312512674514
        ]
      }
    },
    {
      "type": "Feature",
      "properties": {
        "norad_id": 35837,
        "name": "COSMOS 2251 DEB",
        "group": "cosmos-2251-debris",
        "lat": 62.90844620637135,
        "lon": -117.74384243046126,
        "alt_km": 851.4452801906191,
        "timestamp": "2025-12-12T20:43:07.432631+00:00",
        "meta_object_name": "COSMOS 2251 DEB",
        "meta_object_id": "1993-036ATK",
        "meta_epoch": "2025-12-09T22:01:37.127712",
        "meta_mean_motion": 13.63437069,
        "meta_eccentricity": 0.04220669,
        "meta_inclination": 73.7216,
        "meta_ra_of_asc_node": 212.3216,
        "meta_arg_of_pericenter": 133.5531,
        "meta_mean_anomaly": 246.304,
        "meta_ephemeris_type": 0,
        "meta_classification_type": "U",
        "meta_norad_cat_id": 35837,
        "meta_element_set_no": 999,
        "meta_rev_at_epoch": 57938,
        "meta_bstar": 0.0025074688,
        "meta_mean_motion_dot": 3.597e-05,
        "meta_mean_motion_ddot": 0,
        "tle_line1": "1 35837U 93036ATK 25343.91779083  .00003597  00000+0  25075-2 0  9992",
        "tle_line2": "2 35837  73.7216 212.3216 0422066 133.5531 246.3040 13.63437069579385"
      },
      "geometry": {
        "type": "Point",
        "coordinates": [
          -117.74384243046126,
          62.90844620637135
        ]
      }
    },
    {
      "type": "Feature",
      "properties": {
        "norad_id": 35839,
        "name": "COSMOS 2251 DEB",
        "group": "cosmos-2251-debris",
        "lat": 4.7856883723865815,
        "lon": 141.88791192677294,
        "alt_km": 411.3557420212792,
        "timestamp": "2025-12-12T20:43:07.432642+00:00",
        "meta_object_name": "COSMOS 2251 DEB",
        "meta_object_id": "1993-036ATM",
        "meta_epoch": "2025-12-11T22:18:32.554080",
        "meta_mean_motion": 15.51668386,
        "meta_eccentricity": 0.0001468,
        "meta_inclination": 74.2069,
        "meta_ra_of_asc_node": 325.2781,
        "meta_arg_of_pericenter": 109.6337,
        "meta_mean_anomaly": 250.5036,
        "meta_ephemeris_type": 0,
        "meta_classification_type": "U",
        "meta_norad_cat_id": 35839,
        "meta_element_set_no": 999,
        "meta_rev_at_epoch": 88555,
        "meta_bstar": 0.0066118,
        "meta_mean_motion_dot": 0.00414791,
        "meta_mean_motion_ddot": 0,
        "tle_line1": "1 35839U 93036ATM 25345.92954345  .00414791  00000+0  66118-2 0  9998",
        "tle_line2": "2 35839  74.2069 325.2781 0001468 109.6337 250.5036 15.51668386885555"
      },
      "geometry": {
        "type": "Point",
        "coordinates": [
          141.88791192677294,
          4.7856883723865815
        ]
      }
    },
    {
      "type": "Feature",
      "properties": {
        "norad_id": 35840,
        "name": "COSMOS 2251 DEB",
        "group": "cosmos-2251-debris",
        "lat": -73.82450072446544,
        "lon": 61.525279628306706,
        "alt_km": 845.870321714463,
        "timestamp": "2025-12-12T20:43:07.432652+00:00",
        "meta_object_name": "COSMOS 2251 DEB",
        "meta_object_id": "1993-036ATN",
        "meta_epoch": "2025-12-12T04:26:56.474304",
        "meta_mean_motion": 14.37821687,
        "meta_eccentricity": 0.01162768,
        "meta_inclination": 73.9307,
        "meta_ra_of_asc_node": 159.2062,
        "meta_arg_of_pericenter": 61.7798,
        "meta_mean_anomaly": 299.5037,
        "meta_ephemeris_type": 0,
        "meta_classification_type": "U",
        "meta_norad_cat_id": 35840,
        "meta_element_set_no": 999,
        "meta_rev_at_epoch": 85283,
        "meta_bstar": 0.0026691111,
        "meta_mean_motion_dot": 8.683e-05,
        "meta_mean_motion_ddot": 0,
        "tle_line1": "1 35840U 93036ATN 25346.18537586  .00008683  00000+0  26691-2 0  9994",
        "tle_line2": "2 35840  73.9307 159.2062 0116276  61.7798 299.5037 14.37821687852835"
      },
      "geometry": {
        "type": "Point",
        "coordinates": [
          61.525279628306706,
          -73.82450072446544
        ]
      }
    },
    {
      "type": "Feature",
      "properties": {
        "norad_id": 35883,
        "name": "COSMOS 2251 DEB",
        "group": "cosmos-2251-debris",
        "lat": -73.15062373781423,
        "lon": -1.2647749790789868,
        "alt_km": 716.1189852320695,
        "timestamp": "2025-12-12T20:43:07.432663+00:00",
        "meta_object_name": "COSMOS 2251 DEB",
        "meta_object_id": "1993-036ATW",
        "meta_epoch": "2025-12-08T12:53:27.979296",
        "meta_mean_motion": 14.5058807,
        "meta_eccentricity": 0.00839123,
        "meta_inclination": 74.0248,
        "meta_ra_of_asc_node": 77.932,
        "meta_arg_of_pericenter": 208.211,
        "meta_mean_anomaly": 163.6192,
        "meta_ephemeris_type": 0,
        "meta_classification_type": "U",
        "meta_norad_cat_id": 35883,
        "meta_element_set_no": 999,
        "meta_rev_at_epoch": 62325,
        "meta_bstar": 0.00065719246,
        "meta_mean_motion_dot": 2.667e-05,
        "meta_mean_motion_ddot": 0,
        "tle_line1": "1 35883U 93036ATW 25342.53712939  .00002667  00000+0  65719-3 0  9994",
        "tle_line2": "2 35883  74.0248  77.9320 0083912 208.2110 163.6192 14.50588070623253"
      },
      "geometry": {
        "type": "Point",
        "coordinates": [
          -1.2647749790789868,
          -73.15062373781423
        ]
      }
    },
    {
      "type": "Feature",
      "properties": {
        "norad_id": 35884,
        "name": "COSMOS 2251 DEB",
        "group": "cosmos-2251-debris",
        "lat": -16.213720489322313,
        "lon": -29.002114988034588,
        "alt_km": 869.8763936787309,
        "timestamp": "2025-12-12T20:43:07.432673+00:00",
        "meta_object_name": "COSMOS 2251 DEB",
        "meta_object_id": "1993-036ATX",
        "meta_epoch": "2025-12-09T17:00:47.209536",
        "meta_mean_motion": 14.25629404,
        "meta_eccentricity": 0.01087033,
        "meta_inclination": 73.9912,
        "meta_ra_of_asc_node": 341.4952,
        "meta_arg_of_pericenter": 129.2859,
        "meta_mean_anomaly": 231.7992,
        "meta_ephemeris_type": 0,
        "meta_classification_type": "U",
        "meta_norad_cat_id": 35884,
        "meta_element_set_no": 999,
        "meta_rev_at_epoch": 22314,
        "meta_bstar": 0.001725321,
        "meta_mean_motion_dot": 4.326e-05,
        "meta_mean_motion_ddot": 0,
        "tle_line1": "1 35884U 93036ATX 25343.70887974  .00004326  00000+0  17253-2 0  9990",
        "tle_line2": "2 35884  73.9912 341.4952 0108703 129.2859 231.7992 14.25629404223146"
      },
      "geometry": {
        "type": "Point",
        "coordinates": [
          -29.002114988034588,
          -16.213720489322313
        ]
      }
    }
  ]
}